NORAD_CAT_ID,OBJECT_NAME,OBJECT_TYPE,EPOCH,MEAN_MOTION,ECCENTRICITY,INCLINATION,RA_OF_ASC_NODE,ARG_OF_PERICENTER,MEAN_ANOMALY,BSTAR,MEAN_MOTION_DOT,MEAN_MOTION_DDOT,TLE_LINE0,TLE_LINE1,TLE_LINE2,SEMIMAJOR_AXIS,PERIOD,APOGEE,PERIGEE,DECAYED
49424.0,STARLINK-3135,PAYLOAD,2024-07-20 19:12:48,15.08843798,0.0001209,53.2161,28.6574,102.608,257.5047,0.00011466,1.538e-05,0.0,0 STARLINK-3135,1 49424U 21104S   24202.80056202  .00001538  00000-0  11466-3 0  9992,2 49424  53.2161  28.6574 0001209 102.6080 257.5047 15.08843798149607,6917.869,95.437,540.57,538.897,0.0
49424.0,STARLINK-3135,PAYLOAD,2024-07-21 17:28:12,15.08839767,0.0001284,53.218,24.4977,94.9897,265.1242,8.2919e-05,1.032e-05,0.0,0 STARLINK-3135,1 49424U 21104S   24203.72792486  .00001032  00000-0  82919-4 0  9996,2 49424  53.2180  24.4977 0001284  94.9897 265.1242 15.08839767149749,6917.881,95.438,540.634,538.858,0.0
49424.0,STARLINK-3135,PAYLOAD,2024-07-22 12:32:50,15.08837936,0.0001364,53.2185,20.9308,92.2406,267.8742,7.2906e-05,8.73e-06,0.0,0 STARLINK-3135,1 49424U 21104S   24204.52280709  .00000873  00000-0  72906-4 0  9992,2 49424  53.2185  20.9308 0001364  92.2406 267.8742 15.08837936148771,6917.887,95.438,540.695,538.808,0.0
49424.0,STARLINK-3135,PAYLOAD,2024-07-23 10:48:14,15.08842571,0.0001893,53.2178,16.7683,84.4227,275.6981,0.00011467,1.537e-05,0.0,0 STARLINK-3135,1 49424U 21104S   24205.45016604  .00001537  00000-0  11467-3 0  9998,2 49424  53.2178  16.7683 0001893  84.4227 275.6981 15.08842571150005,6917.873,95.437,541.047,538.428,0.0
49424.0,STARLINK-3135,PAYLOAD,2024-07-25 10:29:47,15.08852939,0.0001671,53.2177,7.8469,77.0645,283.0534,0.00015154,2.125e-05,0.0,0 STARLINK-3135,1 49424U 21104S   24207.43735855  .00002125  00000-0  15154-3 0  9995,2 49424  53.2177   7.8469 0001671  77.0645 283.0534 15.08852939150302,6917.841,95.437,540.862,538.55,0.0
49424.0,STARLINK-3135,PAYLOAD,2024-07-25 20:02:06,15.0886463,0.0001593,53.2174,6.0603,73.0689,287.0478,0.00037324,5.661e-05,0.0,0 STARLINK-3135,1 49424U 21104S   24207.83479286  .00005661  00000-0  37324-3 0  9993,2 49424  53.2174   6.0603 0001593  73.0689 287.0478 15.08864630149273,6917.805,95.436,540.772,538.568,0.0
49424.0,STARLINK-3135,PAYLOAD,2024-07-26 03:59:02,15.08846481,0.0001046,53.2188,4.5761,86.3539,273.7573,8.7947e-05,1.112e-05,0.0,0 STARLINK-3135,1 49424U 21104S   24208.16599646  .00001112  00000-0  87947-4 0  9997,2 49424  53.2188   4.5761 0001046  86.3539 273.7573 15.08846481150410,6917.861,95.437,540.449,539.002,0.0
49424.0,STARLINK-3135,PAYLOAD,2024-07-26 19:52:53,15.08841397,0.0001436,53.2156,1.5972,108.5635,251.5513,-0.00010911,-2.024e-05,0.0,0 STARLINK-3135,1 49424U 21104S   24208.82840053 -.00002024  00000-0 -10911-3 0  9992,2 49424  53.2156   1.5972 0001436 108.5635 251.5513 15.08841397150513,6917.876,95.437,540.735,538.748,0.0
49424.0,STARLINK-3135,PAYLOAD,2024-07-27 03:49:49,15.08833183,0.000154,53.214,0.1103,103.5227,256.5936,-0.00021653,-3.732e-05,0.0,0 STARLINK-3135,1 49424U 21104S   24209.15960551 -.00003732  00000-0 -21653-3 0  9997,2 49424  53.2140   0.1103 0001540 103.5227 256.5936 15.08833183149476,6917.901,95.438,540.832,538.701,0.0
49424.0,STARLINK-3135,PAYLOAD,2024-07-27 10:11:22,15.08912491,0.0001381,53.2147,358.9202,125.6533,234.4588,-0.0012457,-0.00020098,0.0,0 STARLINK-3135,1 49424U 21104S   24209.42456117 -.00020098  00000-0 -12457-2 0  9990,2 49424  53.2147 358.9202 0001381 125.6533 234.4588 15.08912491150600,6917.659,95.433,540.479,538.568,0.0
49424.0,STARLINK-3135,PAYLOAD,2024-07-27 19:43:40,15.08895253,0.0001945,53.2141,357.1381,113.4736,246.6461,-0.0010172,-0.00016465,0.0,0 STARLINK-3135,1 49424U 21104S   24209.82199312 -.00016465  00000-0 -10172-2 0  9990,2 49424  53.2141 357.1381 0001945 113.4736 246.6461 15.08895253149574,6917.712,95.434,540.922,538.231,0.0
49424.0,STARLINK-3135,PAYLOAD,2024-07-28 13:12:55,15.08835291,0.0001303,53.2162,353.8679,108.6985,251.4149,0.00015561,2.189e-05,0.0,0 STARLINK-3135,1 49424U 21104S   24210.55064636  .00002189  00000-0  15561-3 0  9996,2 49424  53.2162 353.8679 0001303 108.6985 251.4149 15.08835291150777,6917.895,95.438,540.661,538.858,0.0
49424.0,STARLINK-3135,PAYLOAD,2024-07-28 21:09:50,15.08863794,0.0001687,53.2184,352.3768,129.742,230.3721,-2.6141e-05,-7.04e-06,0.0,0 STARLINK-3135,1 49424U 21104S   24210.88183347 -.00000704  00000-0 -26141-4 0  9993,2 49424  53.2184 352.3768 0001687 129.7420 230.3721 15.08863794149732,6917.808,95.436,540.84,538.506,0.0
49424.0,STARLINK-3135,PAYLOAD,2024-07-29 09:52:57,15.08833286,0.0001891,53.2186,349.9996,104.1422,255.9781,0.00017483,2.495e-05,0.0,0 STARLINK-3135,1 49424U 21104S   24211.41177439  .00002495  00000-0  17483-3 0  9993,2 49424  53.2186 349.9996 0001891 104.1422 255.9781 15.08833286150908,6917.901,95.438,541.074,538.458,0.0
49424.0,STARLINK-3135,PAYLOAD,2024-07-29 21:00:38,15.08840135,0.0002371,53.2153,347.9164,119.6607,240.4622,0.00021962,3.209e-05,0.0,0 STARLINK-3135,1 49424U 21104S   24211.87545072  .00003209  00000-0  21962-3 0  9996,2 49424  53.2153 347.9164 0002371 119.6607 240.4622 15.08840135149886,6917.88,95.438,541.385,538.105,0.0
49424.0,STARLINK-3135,PAYLOAD,2024-07-30 19:16:03,15.08844888,0.0001542,53.2184,343.7583,87.3276,272.7893,-3.4543e-05,-8.38e-06,0.0,0 STARLINK-3135,1 49424U 21104S   24212.80281329 -.00000838  00000-0 -34543-4 0  9999,2 49424  53.2184 343.7583 0001542  87.3276 272.7893 15.08844888151117,6917.865,95.437,540.797,538.664,0.0
49424.0,STARLINK-3135,PAYLOAD,2024-07-31 01:37:36,15.08834482,0.0001632,53.2166,342.5688,96.3514,263.7664,-0.00013078,-2.368e-05,0.0,0 STARLINK-3135,1 49424U 21104S   24213.06778234 -.00002368  00000-0 -13078-3 0  9993,2 49424  53.2166 342.5688 0001632  96.3514 263.7664 15.08834482151154,6917.897,95.438,540.891,538.633,0.0
49424.0,STARLINK-3135,PAYLOAD,2024-07-31 14:20:41,15.08832939,0.0001367,53.2176,340.1898,97.5759,262.5388,-7.5612e-05,-1.491e-05,0.0,0 STARLINK-3135,1 49424U 21104S   24213.59770537 -.00001491  00000-0 -75612-4 0  9998,2 49424  53.2176 340.1898 0001367  97.5759 262.5388 15.08832939150144,6917.902,95.438,540.713,538.821,0.0
49424.0,STARLINK-3135,PAYLOAD,2024-07-31 17:31:27,15.08844848,0.0001204,53.2176,339.5955,113.7336,246.3782,1.8933e-05,1.4e-07,0.0,0 STARLINK-3135,1 49424U 21104S   24213.73017469  .00000014  00000-0  18933-4 0  9993,2 49424  53.2176 339.5955 0001204 113.7336 246.3782 15.08844848151255,6917.866,95.437,540.563,538.898,0.0
49424.0,STARLINK-3135,PAYLOAD,2024-08-01 12:36:04,15.08847819,0.0001485,53.2176,336.0267,106.2598,253.8558,0.0002352,3.458e-05,0.0,0 STARLINK-3135,1 49424U 21104S   24214.52504888  .00003458  00000-0  23520-3 0  9999,2 49424  53.2176 336.0267 0001485 106.2598 253.8558 15.08847819150288,6917.856,95.437,540.749,538.694,0.0
49424.0,STARLINK-3135,PAYLOAD,2024-08-01 17:22:13,15.08849201,0.0002316,53.2174,335.1336,92.711,267.4147,0.00030472,4.566e-05,0.0,0 STARLINK-3135,1 49424U 21104S   24214.72376800  .00004566  00000-0  30472-3 0  9997,2 49424  53.2174 335.1336 0002316  92.7110 267.4147 15.08849201150312,6917.852,95.437,541.319,538.115,0.0
49424.0,STARLINK-3135,PAYLOAD,2024-08-02 01:19:09,15.08839582,0.0001274,53.217,333.646,98.8665,261.2472,0.00013553,1.87e-05,0.0,0 STARLINK-3135,1 49424U 21104S   24215.05497408  .00001870  00000-0  13553-3 0  9998,2 49424  53.2170 333.6460 0001274  98.8665 261.2472 15.08839582151453,6917.882,95.438,540.628,538.865,0.0
49424.0,STARLINK-3135,PAYLOAD,2024-08-02 14:02:15,15.0882791,0.0001166,53.2156,331.2718,100.4797,259.6327,2.9044e-06,-2.42e-06,0.0,0 STARLINK-3135,1 49424U 21104S   24215.58490395 -.00000242  00000-0  29044-5 0  9991,2 49424  53.2156 331.2718 0001166 100.4797 259.6327 15.08827910151534,6917.917,95.438,540.589,538.976,0.0
49424.0,STARLINK-3135,PAYLOAD,2024-08-03 01:09:57,15.08840714,0.0001332,53.216,329.189,103.4155,256.6986,5.4819e-06,-2.01e-06,0.0,0 STARLINK-3135,1 49424U 21104S   24216.04857871 -.00000201  00000-0  54819-5 0  9992,2 49424  53.2160 329.1890 0001332 103.4155 256.6986 15.08840714151605,6917.878,95.438,540.665,538.822,0.0
49424.0,STARLINK-3135,PAYLOAD,2024-08-03 13:53:01,15.08851414,0.0001299,53.2161,326.8107,93.1328,266.9813,-1.0145e-05,-4.49e-06,0.0,0 STARLINK-3135,1 49424U 21104S   24216.57849341 -.00000449  00000-0 -10145-4 0  9991,2 49424  53.2161 326.8107 0001299  93.1328 266.9813 15.08851414150599,6917.846,95.437,540.609,538.812,0.0
49424.0,STARLINK-3135,PAYLOAD,2024-08-04 01:00:44,15.08844411,0.0001825,53.2146,324.7301,87.5453,272.5748,0.00027452,4.084e-05,0.0,0 STARLINK-3135,1 49424U 21104S   24217.04217918  .00004084  00000-0  27452-3 0  9998,2 49424  53.2146 324.7301 0001825  87.5453 272.5748 15.08844411151754,6917.867,95.437,540.994,538.469,0.0
49424.0,STARLINK-3135,PAYLOAD,2024-08-04 13:43:49,15.08844196,0.0001568,53.2176,322.3503,104.3689,255.7477,0.00029212,4.365e-05,0.0,0 STARLINK-3135,1 49424U 21104S   24217.57209951  .00004365  00000-0  29212-3 0  9992,2 49424  53.2176 322.3503 0001568 104.3689 255.7477 15.08844196150748,6917.868,95.437,540.817,538.648,0.0
49424.0,STARLINK-3135,PAYLOAD,2024-08-05 13:34:35,15.08861876,0.0001446,53.2177,317.8891,96.2765,263.8392,0.00040791,6.214e-05,0.0,0 STARLINK-3135,1 49424U 21104S   24218.56568732  .00006214  00000-0  40791-3 0  9997,2 49424  53.2177 317.8891 0001446  96.2765 263.8392 15.08861876151984,6917.814,95.436,540.679,538.678,0.0
49424.0,STARLINK-3135,PAYLOAD,2024-08-06 05:28:27,15.08825661,0.0001576,53.2186,314.9177,90.2985,269.8188,-0.00060971,-9.975e-05,0.0,0 STARLINK-3135,1 49424U 21104S   24219.22809300 -.00009975  00000-0 -60971-3 0  9991,2 49424  53.2186 314.9177 0001576  90.2985 269.8188 15.08825661152084,6917.924,95.438,540.879,538.699,0.0
49424.0,STARLINK-3135,PAYLOAD,2024-08-06 13:25:23,15.08818548,0.0001374,53.2192,313.4317,86.7191,273.3959,-7.9718e-05,-1.556e-05,0.0,0 STARLINK-3135,1 49424U 21104S   24219.55929773 -.00001556  00000-0 -79718-4 0  9991,2 49424  53.2192 313.4317 0001374  86.7191 273.3959 15.08818548151043,6917.946,95.439,540.761,538.86,0.0
